[{"id":1,"name":"Afganistan","alpha_2_code":"AF","alpha_3_code":"AFG","address_format":"","postcode_required":0,"name_en":"Afghanistan","phone_code":"93","flag":"https://raw.githubusercontent.com/pryazilim/lib/master/data/flag/afghanistan-32x32-32928.png"},{"id":2,"name":"Arnavutluk","alpha_2_code":"AL","alpha_3_code":"ALB","address_format":"","postcode_required":0,"name_en":"Albania","phone_code":"355","flag":"https://raw.githubusercontent.com/pryazilim/lib/master/data/flag/albania-32x32-32909.png"},{"id":3,"name":"Cezayir","alpha_2_code":"DZ","alpha_3_code":"DZA","address_format":"","postcode_required":0,"name_en":"Algeria","phone_code":"213","flag":"https://raw.githubusercontent.com/pryazilim/lib/master/data/flag/algeria-32x32-32972.png"},{"id":4,"name":"Amerikan Samoası","alpha_2_code":"AS","alpha_3_code":"ASM","address_format":"","postcode_required":0,"name_en":"American Samoa","phone_code":"1684","flag":"https://raw.githubusercontent.com/pryazilim/lib/master/data/flag/american-32x32-32917.png"},{"id":5,"name":"Andorra","alpha_2_code":"AD","alpha_3_code":"AND","address_format":"","postcode_required":0,"name_en":"Andorra","phone_code":"376","flag":"https://raw.githubusercontent.com/pryazilim/lib/master/data/flag/andorra-32x32-32921.png"},{"id":6,"name":"Angola","alpha_2_code":"AO","alpha_3_code":"AGO","address_format":"","postcode_required":0,"name_en":"Angola","phone_code":"244","flag":"https://raw.githubusercontent.com/pryazilim/lib/master/data/flag/angola-32x32-32914.png"},{"id":7,"name":"Anguilla","alpha_2_code":"AI","alpha_3_code":"AIA","address_format":"","postcode_required":0,"name_en":"Anguilla","phone_code":"1264","flag":"https://raw.githubusercontent.com/pryazilim/lib/master/data/flag/anguilla-32x32-32924.png"},{"id":8,"name":"Antartika","alpha_2_code":"AQ","alpha_3_code":"ATA","address_format":"","postcode_required":0,"name_en":"Antarctica","phone_code":"672","flag":"https://raw.githubusercontent.com/pryazilim/lib/master/data/flag/antarctica-32x32-33151.png"},{"id":9,"name":"Antigua ve Barbuda","alpha_2_code":"AG","alpha_3_code":"ATG","address_format":"","postcode_required":0,"name_en":"Antigua and Barbuda","phone_code":"1268","flag":"https://raw.githubusercontent.com/pryazilim/lib/master/data/flag/antigua-32x32-32910.png"},{"id":10,"name":"Arjantin","alpha_2_code":"AR","alpha_3_code":"ARG","address_format":"","postcode_required":0,"name_en":"Argentina","phone_code":"54","flag":"https://raw.githubusercontent.com/pryazilim/lib/master/data/flag/argentina-32x32-32919.png"},{"id":11,"name":"Ermenistan","alpha_2_code":"AM","alpha_3_code":"ARM","address_format":"","postcode_required":0,"name_en":"Armenia","phone_code":"374","flag":"https://raw.githubusercontent.com/pryazilim/lib/master/data/flag/armenia-32x32-32925.png"},{"id":12,"name":"Aruba","alpha_2_code":"AW","alpha_3_code":"ABW","address_format":"","postcode_required":0,"name_en":"Aruba","phone_code":"297","flag":"https://raw.githubusercontent.com/pryazilim/lib/master/data/flag/aruba-32x32-32923.png"},{"id":13,"name":"Avustralya","alpha_2_code":"AU","alpha_3_code":"AUS","address_format":"","postcode_required":0,"name_en":"Australia","phone_code":"61","flag":"https://raw.githubusercontent.com/pryazilim/lib/master/data/flag/austallia-32x32-32912.png"},{"id":14,"name":"Avusturya","alpha_2_code":"AT","alpha_3_code":"AUT","address_format":"","postcode_required":0,"name_en":"Austria","phone_code":"43","flag":"https://raw.githubusercontent.com/pryazilim/lib/master/data/flag/austria-32x32-32920.png"},{"id":15,"name":"Azerbeycan","alpha_2_code":"AZ","alpha_3_code":"AZE","address_format":"","postcode_required":0,"name_en":"Azerbaijan","phone_code":"994","flag":"https://raw.githubusercontent.com/pryazilim/lib/master/data/flag/azerbaijan-32x32-32926.png"},{"id":16,"name":"Bahamalar","alpha_2_code":"BS","alpha_3_code":"BHS","address_format":"","postcode_required":0,"name_en":"Bahamas","phone_code":"1242","flag":"https://raw.githubusercontent.com/pryazilim/lib/master/data/flag/bahamas-32x32-32915.png"},{"id":17,"name":"Bahreyn","alpha_2_code":"BH","alpha_3_code":"BHR","address_format":"","postcode_required":0,"name_en":"Bahrain","phone_code":"973","flag":"https://raw.githubusercontent.com/pryazilim/lib/master/data/flag/bahrain-32x32-32974.png"},{"id":18,"name":"Bangladeş","alpha_2_code":"BD","alpha_3_code":"BGD","address_format":"","postcode_required":0,"name_en":"Bangladesh","phone_code":"880","flag":"https://raw.githubusercontent.com/pryazilim/lib/master/data/flag/bangladesh-32x32-32916.png"},{"id":19,"name":"Barbados","alpha_2_code":"BB","alpha_3_code":"BRB","address_format":"","postcode_required":0,"name_en":"Barbados","phone_code":"1246","flag":"https://raw.githubusercontent.com/pryazilim/lib/master/data/flag/barbados-32x32-32913.png"},{"id":20,"name":"Belarus","alpha_2_code":"BY","alpha_3_code":"BLR","address_format":"","postcode_required":0,"name_en":"Belarus","phone_code":"375","flag":"https://raw.githubusercontent.com/pryazilim/lib/master/data/flag/belarus-32x32-32918.png"},{"id":21,"name":"Belçika","alpha_2_code":"BE","alpha_3_code":"BEL","address_format":"{firstname} {lastname} {company} {address_1} {address_2} {postcode} {city} {country}","postcode_required":1,"name_en":"Belgium","phone_code":"32","flag":"https://raw.githubusercontent.com/pryazilim/lib/master/data/flag/belgium-32x32-32911.png"},{"id":22,"name":"Belize","alpha_2_code":"BZ","alpha_3_code":"BLZ","address_format":"","postcode_required":0,"name_en":"Belize","phone_code":"501","flag":"https://raw.githubusercontent.com/pryazilim/lib/master/data/flag/belize-32x32-32927.png"},{"id":23,"name":"Benin","alpha_2_code":"BJ","alpha_3_code":"BEN","address_format":"","postcode_required":0,"name_en":"Benin","phone_code":"229","flag":"https://raw.githubusercontent.com/pryazilim/lib/master/data/flag/benin-32x32-32922.png"},{"id":24,"name":"Bermuda","alpha_2_code":"BM","alpha_3_code":"BMU","address_format":"","postcode_required":0,"name_en":"Bermuda","phone_code":"1441","flag":"https://raw.githubusercontent.com/pryazilim/lib/master/data/flag/bermuda-32x32-32929.png"},{"id":25,"name":"Butan","alpha_2_code":"BT","alpha_3_code":"BTN","address_format":"","postcode_required":0,"name_en":"Bhutan","phone_code":"975","flag":"https://raw.githubusercontent.com/pryazilim/lib/master/data/flag/bhutan-32x32-32931.png"},{"id":26,"name":"Bolivya","alpha_2_code":"BO","alpha_3_code":"BOL","address_format":"","postcode_required":0,"name_en":"Bolivia","phone_code":"591","flag":"https://raw.githubusercontent.com/pryazilim/lib/master/data/flag/bolivia-32x32-32945.png"},{"id":27,"name":"Bosna Hersek","alpha_2_code":"BA","alpha_3_code":"BIH","address_format":"","postcode_required":0,"name_en":"Bosnia and Herzegovina","phone_code":"387","flag":"https://raw.githubusercontent.com/pryazilim/lib/master/data/flag/bosnia-32x32-32932.png"},{"id":28,"name":"Botsvana","alpha_2_code":"BW","alpha_3_code":"BWA","address_format":"","postcode_required":0,"name_en":"Botswana","phone_code":"267","flag":"https://raw.githubusercontent.com/pryazilim/lib/master/data/flag/bostwana-32x32-32933.png"},{"id":29,"name":"Bouvet Adası","alpha_2_code":"BV","alpha_3_code":"BVT","address_format":"","postcode_required":0,"name_en":"Bouvet Island","phone_code":"47","flag":"https://raw.githubusercontent.com/pryazilim/lib/master/data/flag/bostwana-32x32-32933.png"},{"id":30,"name":"Brezilya","alpha_2_code":"BR","alpha_3_code":"BRA","address_format":"","postcode_required":0,"name_en":"Brazil","phone_code":"55","flag":"https://raw.githubusercontent.com/pryazilim/lib/master/data/flag/brazil-32x32-32937.png"},{"id":31,"name":"Britanya Hint Okyanusu Bölgesi","alpha_2_code":"IO","alpha_3_code":"IOT","address_format":"","postcode_required":0,"name_en":"British Indian Ocean Territory","phone_code":"246","flag":"https://raw.githubusercontent.com/pryazilim/lib/master/data/flag/british-32x32-33159.png"},{"id":32,"name":"Brunei Sultanlığı","alpha_2_code":"BN","alpha_3_code":"BRN","address_format":"","postcode_required":0,"name_en":"Brunei","phone_code":"673","flag":"https://raw.githubusercontent.com/pryazilim/lib/master/data/flag/brunei-32x32-32944.png"},{"id":33,"name":"Bulgaristan","alpha_2_code":"BG","alpha_3_code":"BGR","address_format":"","postcode_required":1,"name_en":"Bulgaria","phone_code":"359","flag":"https://raw.githubusercontent.com/pryazilim/lib/master/data/flag/bulgaria-32x32-32973.png"},{"id":34,"name":"Burkina Faso","alpha_2_code":"BF","alpha_3_code":"BFA","address_format":"","postcode_required":0,"name_en":"Burkina Faso","phone_code":"226","flag":"https://raw.githubusercontent.com/pryazilim/lib/master/data/flag/burkina-32x32-32934.png"},{"id":35,"name":"Burundi","alpha_2_code":"BI","alpha_3_code":"BDI","address_format":"","postcode_required":0,"name_en":"Burundi","phone_code":"257","flag":"https://raw.githubusercontent.com/pryazilim/lib/master/data/flag/burundi-32x32-32935.png"},{"id":36,"name":"Kamboçya","alpha_2_code":"KH","alpha_3_code":"KHM","address_format":"","postcode_required":0,"name_en":"Cambodia","phone_code":"855","flag":"https://raw.githubusercontent.com/pryazilim/lib/master/data/flag/cambodia-32x32-32978.png"},{"id":37,"name":"Kamerun","alpha_2_code":"CM","alpha_3_code":"CMR","address_format":"","postcode_required":0,"name_en":"Cameroon","phone_code":"237","flag":"https://raw.githubusercontent.com/pryazilim/lib/master/data/flag/cameroon-32x32-32936.png"},{"id":38,"name":"Kanada","alpha_2_code":"CA","alpha_3_code":"CAN","address_format":"","postcode_required":0,"name_en":"Canada","phone_code":"1","flag":"https://raw.githubusercontent.com/pryazilim/lib/master/data/flag/canada-32x32-32938.png"},{"id":39,"name":"Cape Verde","alpha_2_code":"CV","alpha_3_code":"CPV","address_format":"","postcode_required":0,"name_en":"Cape Verde","phone_code":"238","flag":""},{"id":40,"name":"Cayman Adaları","alpha_2_code":"KY","alpha_3_code":"CYM","address_format":"","postcode_required":0,"name_en":"Cayman Islands","phone_code":"1345","flag":"https://raw.githubusercontent.com/pryazilim/lib/master/data/flag/cayman-32x32-32986.png"},{"id":41,"name":"Orta Afrika Cumhuriyeti","alpha_2_code":"CF","alpha_3_code":"CAF","address_format":"","postcode_required":0,"name_en":"Central African Republic","phone_code":"236","flag":"https://raw.githubusercontent.com/pryazilim/lib/master/data/flag/central-32x32-32940.png"},{"id":42,"name":"Çad","alpha_2_code":"TD","alpha_3_code":"TCD","address_format":"","postcode_required":0,"name_en":"Chad","phone_code":"235","flag":"https://raw.githubusercontent.com/pryazilim/lib/master/data/flag/chad-32x32-32985.png"},{"id":43,"name":"Şili","alpha_2_code":"CL","alpha_3_code":"CHL","address_format":"","postcode_required":0,"name_en":"Chile","phone_code":"56","flag":"https://raw.githubusercontent.com/pryazilim/lib/master/data/flag/chile-32x32-32939.png"},{"id":44,"name":"Çin","alpha_2_code":"CN","alpha_3_code":"CHN","address_format":"","postcode_required":0,"name_en":"China","phone_code":"86","flag":"https://raw.githubusercontent.com/pryazilim/lib/master/data/flag/china-32x32-32942.png"},{"id":45,"name":"Noel Adası","alpha_2_code":"CX","alpha_3_code":"CXR","address_format":"","postcode_required":0,"name_en":"Christmas Island","phone_code":"61","flag":"https://raw.githubusercontent.com/pryazilim/lib/master/data/flag/christmas-32x32-32943.png"},{"id":46,"name":"Cocos (Keeling) Adaları","alpha_2_code":"CC","alpha_3_code":"CCK","address_format":"","postcode_required":0,"name_en":"Cocos Islands","phone_code":"61","flag":"https://raw.githubusercontent.com/pryazilim/lib/master/data/flag/cocos-32x32-32947.png"},{"id":47,"name":"Kolombiya","alpha_2_code":"CO","alpha_3_code":"COL","address_format":"","postcode_required":0,"name_en":"Colombia","phone_code":"57","flag":"https://raw.githubusercontent.com/pryazilim/lib/master/data/flag/colombia-32x32-32946.png"},{"id":48,"name":"Komorlar","alpha_2_code":"KM","alpha_3_code":"COM","address_format":"","postcode_required":0,"name_en":"Comoros","phone_code":"269","flag":"https://raw.githubusercontent.com/pryazilim/lib/master/data/flag/comoros-32x32-32981.png"},{"id":49,"name":"Kongo Cumhuriyeti","alpha_2_code":"CG","alpha_3_code":"COG","address_format":"","postcode_required":0,"name_en":"Republic of the Congo","phone_code":"242","flag":"https://raw.githubusercontent.com/pryazilim/lib/master/data/flag/republic-32x32-33061.png"},{"id":50,"name":"Kongo Demokratik Cumhuriyeti","alpha_2_code":"CD","alpha_3_code":"COD","address_format":"","postcode_required":0,"name_en":"Democratic Republic of the Congo","phone_code":"243","flag":"https://raw.githubusercontent.com/pryazilim/lib/master/data/flag/democratic-32x32-32952.png"},{"id":51,"name":"Cook Adaları","alpha_2_code":"CK","alpha_3_code":"COK","address_format":"","postcode_required":0,"name_en":"Cook Islands","phone_code":"682","flag":"https://raw.githubusercontent.com/pryazilim/lib/master/data/flag/cook-32x32-32954.png"},{"id":52,"name":"Kosta Rika","alpha_2_code":"CR","alpha_3_code":"CRI","address_format":"","postcode_required":0,"name_en":"Costa Rica","phone_code":"506","flag":"https://raw.githubusercontent.com/pryazilim/lib/master/data/flag/costa-32x32-32948.png"},{"id":53,"name":"Fildişi Sahili","alpha_2_code":"CI","alpha_3_code":"CIV","address_format":"","postcode_required":0,"name_en":"Ivory Coast","phone_code":"225","flag":""},{"id":54,"name":"Hırvatistan","alpha_2_code":"HR","alpha_3_code":"HRV","address_format":"","postcode_required":1,"name_en":"Croatia","phone_code":"385","flag":"https://raw.githubusercontent.com/pryazilim/lib/master/data/flag/croatia-32x32-32995.png"},{"id":55,"name":"Küba","alpha_2_code":"CU","alpha_3_code":"CUB","address_format":"","postcode_required":0,"name_en":"Cuba","phone_code":"53","flag":"https://raw.githubusercontent.com/pryazilim/lib/master/data/flag/cuba-32x32-32951.png"},{"id":56,"name":"Kıbrıs","alpha_2_code":"CY","alpha_3_code":"CYP","address_format":"","postcode_required":0,"name_en":"Cyprus","phone_code":"357","flag":"https://raw.githubusercontent.com/pryazilim/lib/master/data/flag/cyprus-32x32-32953.png"},{"id":57,"name":"Çek Cumhuriyeti","alpha_2_code":"CZ","alpha_3_code":"CZE","address_format":"","postcode_required":0,"name_en":"Czech Republic","phone_code":"420","flag":""},{"id":58,"name":"Danimarka","alpha_2_code":"DK","alpha_3_code":"DNK","address_format":"","postcode_required":1,"name_en":"Denmark","phone_code":"45","flag":"https://raw.githubusercontent.com/pryazilim/lib/master/data/flag/denmark-32x32-32955.png"},{"id":59,"name":"Cibuti","alpha_2_code":"DJ","alpha_3_code":"DJI","address_format":"","postcode_required":0,"name_en":"Djibouti","phone_code":"253","flag":""},{"id":60,"name":"Dominika","alpha_2_code":"DM","alpha_3_code":"DMA","address_format":"","postcode_required":0,"name_en":"Dominica","phone_code":"1767","flag":"https://raw.githubusercontent.com/pryazilim/lib/master/data/flag/dominica-32x32-32960.png"},{"id":61,"name":"Dominik Cumhuriyeti","alpha_2_code":"DO","alpha_3_code":"DOM","address_format":"","postcode_required":0,"name_en":"Dominican Republic","phone_code":"1809, 1829, 1849","flag":"https://raw.githubusercontent.com/pryazilim/lib/master/data/flag/dominican-32x32-32993.png"},{"id":62,"name":"Doğu Timor","alpha_2_code":"TL","alpha_3_code":"TLS","address_format":"","postcode_required":0,"name_en":"East Timor","phone_code":"670","flag":""},{"id":63,"name":"Ekvador","alpha_2_code":"EC","alpha_3_code":"ECU","address_format":"","postcode_required":0,"name_en":"Ecuador","phone_code":"593","flag":"https://raw.githubusercontent.com/pryazilim/lib/master/data/flag/ecuador-32x32-32962.png"},{"id":64,"name":"Mısır","alpha_2_code":"EG","alpha_3_code":"EGY","address_format":"","postcode_required":0,"name_en":"Egypt","phone_code":"20","flag":"https://raw.githubusercontent.com/pryazilim/lib/master/data/flag/egypt-32x32-32961.png"},{"id":65,"name":"El Salvador","alpha_2_code":"SV","alpha_3_code":"SLV","address_format":"","postcode_required":0,"name_en":"El Salvador","phone_code":"503","flag":"https://raw.githubusercontent.com/pryazilim/lib/master/data/flag/el-32x32-33011.png"},{"id":66,"name":"Ekvator Ginesi","alpha_2_code":"GQ","alpha_3_code":"GNQ","address_format":"","postcode_required":0,"name_en":"Equatorial Guinea","phone_code":"240","flag":"https://raw.githubusercontent.com/pryazilim/lib/master/data/flag/equatorial-32x32-32971.png"},{"id":67,"name":"Eritre","alpha_2_code":"ER","alpha_3_code":"ERI","address_format":"","postcode_required":0,"name_en":"Eritrea","phone_code":"291","flag":"https://raw.githubusercontent.com/pryazilim/lib/master/data/flag/eritrea-32x32-32964.png"},{"id":68,"name":"Estonya","alpha_2_code":"EE","alpha_3_code":"EST","address_format":"","postcode_required":0,"name_en":"Estonia","phone_code":"372","flag":"https://raw.githubusercontent.com/pryazilim/lib/master/data/flag/estonia-32x32-32959.png"},{"id":69,"name":"Etiyopya","alpha_2_code":"ET","alpha_3_code":"ETH","address_format":"","postcode_required":0,"name_en":"Ethiopia","phone_code":"251","flag":"https://raw.githubusercontent.com/pryazilim/lib/master/data/flag/ethiopia-32x32-32958.png"},{"id":71,"name":"Falkland adaları","alpha_2_code":"FK","alpha_3_code":"FLK","address_format":"","postcode_required":0,"name_en":"Falkland Islands","phone_code":"500","flag":"https://raw.githubusercontent.com/pryazilim/lib/master/data/flag/falkland-32x32-32963.png"},{"id":72,"name":"Faroe Adaları","alpha_2_code":"FO","alpha_3_code":"FRO","address_format":"","postcode_required":0,"name_en":"Faroe Islands","phone_code":"298","flag":"https://raw.githubusercontent.com/pryazilim/lib/master/data/flag/faroe-32x32-32965.png"},{"id":73,"name":"Fiji Adaları","alpha_2_code":"FJ","alpha_3_code":"FJI","address_format":"","postcode_required":0,"name_en":"Fiji","phone_code":"679","flag":"https://raw.githubusercontent.com/pryazilim/lib/master/data/flag/fiji-32x32-32970.png"},{"id":74,"name":"Finlandiya","alpha_2_code":"FI","alpha_3_code":"FIN","address_format":"","postcode_required":0,"name_en":"Finland","phone_code":"358","flag":"https://raw.githubusercontent.com/pryazilim/lib/master/data/flag/finland-32x32-32966.png"},{"id":75,"name":"Fransa","alpha_2_code":"FR","alpha_3_code":"FRA","address_format":"{firstname} {lastname} {company} {address_1} {address_2} {postcode} {city} {country}","postcode_required":1,"name_en":"France","phone_code":"33","flag":"https://raw.githubusercontent.com/pryazilim/lib/master/data/flag/france-32x32-32967.png"},{"id":76,"name":"Fransız Guyanası","alpha_2_code":"GF","alpha_3_code":"GUF","address_format":"","postcode_required":0,"name_en":"Guyane","phone_code":"594","flag":"https://raw.githubusercontent.com/pryazilim/lib/master/data/flag/french-32x32-33024.png"},{"id":77,"name":"Fransız Polinezyası","alpha_2_code":"PF","alpha_3_code":"PYF","address_format":"","postcode_required":0,"name_en":"French Polynesia","phone_code":"689","flag":"https://raw.githubusercontent.com/pryazilim/lib/master/data/flag/french-32x32-33024.png"},{"id":78,"name":"Fransız Güney Toprakları","alpha_2_code":"TF","alpha_3_code":"ATF","address_format":"","postcode_required":0,"name_en":"Mayotte","phone_code":"262","flag":"https://raw.githubusercontent.com/pryazilim/lib/master/data/flag/mayotte-32x32-33123.png"},{"id":79,"name":"Gabon","alpha_2_code":"GA","alpha_3_code":"GAB","address_format":"","postcode_required":0,"name_en":"Gabon","phone_code":"241","flag":"https://raw.githubusercontent.com/pryazilim/lib/master/data/flag/gabon-32x32-32968.png"},{"id":80,"name":"Gambiya","alpha_2_code":"GM","alpha_3_code":"GMB","address_format":"","postcode_required":0,"name_en":"Gambia","phone_code":"220","flag":"https://raw.githubusercontent.com/pryazilim/lib/master/data/flag/gambia-32x32-32976.png"},{"id":81,"name":"Gürcistan","alpha_2_code":"GE","alpha_3_code":"GEO","address_format":"","postcode_required":0,"name_en":"Georgia","phone_code":"995","flag":"https://raw.githubusercontent.com/pryazilim/lib/master/data/flag/georgia-32x32-32979.png"},{"id":82,"name":"Almanya","alpha_2_code":"DE","alpha_3_code":"DEU","address_format":"{company} {firstname} {lastname} {address_1} {address_2} {postcode} {city} {country}","postcode_required":1,"name_en":"Germany","phone_code":"49","flag":"https://raw.githubusercontent.com/pryazilim/lib/master/data/flag/germany-32x32-32989.png"},{"id":83,"name":"Gana","alpha_2_code":"GH","alpha_3_code":"GHA","address_format":"","postcode_required":0,"name_en":"Ghana","phone_code":"233","flag":"https://raw.githubusercontent.com/pryazilim/lib/master/data/flag/ghana-32x32-32990.png"},{"id":84,"name":"Cebelitarık","alpha_2_code":"GI","alpha_3_code":"GIB","address_format":"","postcode_required":0,"name_en":"Gibraltar","phone_code":"350","flag":""},{"id":85,"name":"Yunanistan","alpha_2_code":"GR","alpha_3_code":"GRC","address_format":"","postcode_required":1,"name_en":"Greece","phone_code":"30","flag":"https://raw.githubusercontent.com/pryazilim/lib/master/data/flag/greece-32x32-32991.png"},{"id":86,"name":"Grönland","alpha_2_code":"GL","alpha_3_code":"GRL","address_format":"","postcode_required":0,"name_en":"Greenland","phone_code":"299","flag":"https://raw.githubusercontent.com/pryazilim/lib/master/data/flag/greenland-32x32-33003.png"},{"id":87,"name":"Grenada","alpha_2_code":"GD","alpha_3_code":"GRD","address_format":"","postcode_required":0,"name_en":"Grenada","phone_code":"1473","flag":"https://raw.githubusercontent.com/pryazilim/lib/master/data/flag/grenada-32x32-33002.png"},{"id":88,"name":"Guadeloupe","alpha_2_code":"GP","alpha_3_code":"GLP","address_format":"","postcode_required":0,"name_en":"Guadeloupe","phone_code":"590","flag":"https://raw.githubusercontent.com/pryazilim/lib/master/data/flag/mayotte-32x32-33123.png"},{"id":89,"name":"Guam","alpha_2_code":"GU","alpha_3_code":"GUM","address_format":"","postcode_required":0,"name_en":"Guam","phone_code":"1671","flag":"https://raw.githubusercontent.com/pryazilim/lib/master/data/flag/guam-32x32-33006.png"},{"id":90,"name":"Guatemala","alpha_2_code":"GT","alpha_3_code":"GTM","address_format":"","postcode_required":0,"name_en":"Guatemala","phone_code":"502","flag":"https://raw.githubusercontent.com/pryazilim/lib/master/data/flag/guatemala-32x32-33009.png"},{"id":91,"name":"Guernsey ve Alderney","alpha_2_code":"GG","alpha_3_code":"GGY","address_format":"","postcode_required":0,"name_en":"Guernsey","phone_code":"441481","flag":"https://raw.githubusercontent.com/pryazilim/lib/master/data/flag/guernsey-32x32-32980.png"},{"id":92,"name":"Gine","alpha_2_code":"GN","alpha_3_code":"GIN","address_format":"","postcode_required":0,"name_en":"Guinea","phone_code":"224","flag":"https://raw.githubusercontent.com/pryazilim/lib/master/data/flag/guinea-32x32-33008.png"},{"id":93,"name":"Gine-Bissau","alpha_2_code":"GW","alpha_3_code":"GNB","address_format":"","postcode_required":0,"name_en":"GuineaBissau","phone_code":"245","flag":"https://raw.githubusercontent.com/pryazilim/lib/master/data/flag/guinea-32x32-32983.png"},{"id":94,"name":"Guyana","alpha_2_code":"GY","alpha_3_code":"GUY","address_format":"","postcode_required":0,"name_en":"Guyana","phone_code":"592","flag":"https://raw.githubusercontent.com/pryazilim/lib/master/data/flag/guyana-32x32-33007.png"},{"id":95,"name":"Haiti","alpha_2_code":"HT","alpha_3_code":"HTI","address_format":"","postcode_required":0,"name_en":"Haiti","phone_code":"509","flag":"https://raw.githubusercontent.com/pryazilim/lib/master/data/flag/haiti-32x32-32984.png"},{"id":96,"name":"Heard ve McDonald Adaları","alpha_2_code":"HM","alpha_3_code":"HMD","address_format":"","postcode_required":0,"name_en":"Heard Island and McDonald Islands","phone_code":"61","flag":"https://raw.githubusercontent.com/pryazilim/lib/master/data/flag/haiti-32x32-32984.png"},{"id":97,"name":"Honduras","alpha_2_code":"HN","alpha_3_code":"HND","address_format":"","postcode_required":0,"name_en":"Honduras","phone_code":"504","flag":"https://raw.githubusercontent.com/pryazilim/lib/master/data/flag/honduras-32x32-33020.png"},{"id":98,"name":"Hong Kong S.A.R.","alpha_2_code":"HK","alpha_3_code":"HKG","address_format":"","postcode_required":0,"name_en":"Hong Kong","phone_code":"852","flag":"https://raw.githubusercontent.com/pryazilim/lib/master/data/flag/hong-32x32-32987.png"},{"id":99,"name":"Macaristan","alpha_2_code":"HU","alpha_3_code":"HUN","address_format":"","postcode_required":0,"name_en":"Hungary","phone_code":"36","flag":"https://raw.githubusercontent.com/pryazilim/lib/master/data/flag/hungary-32x32-33019.png"},{"id":100,"name":"İzlanda","alpha_2_code":"IS","alpha_3_code":"ISL","address_format":"","postcode_required":0,"name_en":"Iceland","phone_code":"354","flag":"https://raw.githubusercontent.com/pryazilim/lib/master/data/flag/iceland-32x32-33152.png"},{"id":101,"name":"Hindistan","alpha_2_code":"IN","alpha_3_code":"IND","address_format":"","postcode_required":0,"name_en":"India","phone_code":"91","flag":"https://raw.githubusercontent.com/pryazilim/lib/master/data/flag/india-32x32-32988.png"},{"id":102,"name":"Endonezya","alpha_2_code":"ID","alpha_3_code":"IDN","address_format":"","postcode_required":0,"name_en":"Indonesia","phone_code":"62","flag":"https://raw.githubusercontent.com/pryazilim/lib/master/data/flag/indonesia-32x32-32994.png"},{"id":103,"name":"İran","alpha_2_code":"IR","alpha_3_code":"IRN","address_format":"","postcode_required":0,"name_en":"Iran","phone_code":"98","flag":"https://raw.githubusercontent.com/pryazilim/lib/master/data/flag/iran-32x32-33022.png"},{"id":104,"name":"Irak","alpha_2_code":"IQ","alpha_3_code":"IRQ","address_format":"","postcode_required":0,"name_en":"Iraq","phone_code":"964","flag":"https://raw.githubusercontent.com/pryazilim/lib/master/data/flag/iraq-32x32-33017.png"},{"id":105,"name":"İrlanda","alpha_2_code":"IE","alpha_3_code":"IRL","address_format":"","postcode_required":1,"name_en":"Ireland","phone_code":"353","flag":"https://raw.githubusercontent.com/pryazilim/lib/master/data/flag/ireland-32x32-32996.png"},{"id":106,"name":"İsrail","alpha_2_code":"IL","alpha_3_code":"ISR","address_format":"","postcode_required":0,"name_en":"Israel","phone_code":"972","flag":"https://raw.githubusercontent.com/pryazilim/lib/master/data/flag/israel-32x32-32997.png"},{"id":107,"name":"İtalya","alpha_2_code":"IT","alpha_3_code":"ITA","address_format":"","postcode_required":0,"name_en":"Italy","phone_code":"39","flag":"https://raw.githubusercontent.com/pryazilim/lib/master/data/flag/italy-32x32-32999.png"},{"id":108,"name":"Jamaika","alpha_2_code":"JM","alpha_3_code":"JAM","address_format":"","postcode_required":0,"name_en":"Jamaica","phone_code":"1876","flag":"https://raw.githubusercontent.com/pryazilim/lib/master/data/flag/jamaica-32x32-33000.png"},{"id":109,"name":"Japonya","alpha_2_code":"JP","alpha_3_code":"JPN","address_format":"","postcode_required":0,"name_en":"Japan","phone_code":"81","flag":"https://raw.githubusercontent.com/pryazilim/lib/master/data/flag/japan-32x32-33001.png"},{"id":110,"name":"Jersey","alpha_2_code":"JE","alpha_3_code":"JEY","address_format":"","postcode_required":0,"name_en":"Jersey","phone_code":"441534","flag":"https://raw.githubusercontent.com/pryazilim/lib/master/data/flag/jersey-32x32-33004.png"},{"id":111,"name":"Ürdün","alpha_2_code":"JO","alpha_3_code":"JOR","address_format":"","postcode_required":0,"name_en":"Jordan","phone_code":"962","flag":"https://raw.githubusercontent.com/pryazilim/lib/master/data/flag/jordan-32x32-33005.png"},{"id":112,"name":"Kazakistan","alpha_2_code":"KZ","alpha_3_code":"KAZ","address_format":"","postcode_required":0,"name_en":"Kazakhstan","phone_code":"7","flag":"https://raw.githubusercontent.com/pryazilim/lib/master/data/flag/kazakhstan-32x32-33021.png"},{"id":113,"name":"Kenya","alpha_2_code":"KE","alpha_3_code":"KEN","address_format":"","postcode_required":0,"name_en":"Kenya","phone_code":"254","flag":"https://raw.githubusercontent.com/pryazilim/lib/master/data/flag/kenya-32x32-33010.png"},{"id":114,"name":"Kiribati","alpha_2_code":"KI","alpha_3_code":"KIR","address_format":"","postcode_required":0,"name_en":"Kiribati","phone_code":"686","flag":"https://raw.githubusercontent.com/pryazilim/lib/master/data/flag/kiribati-32x32-33012.png"},{"id":115,"name":"Kuzey Kore","alpha_2_code":"KP","alpha_3_code":"PRK","address_format":"","postcode_required":0,"name_en":"North Korea","phone_code":"850","flag":"https://raw.githubusercontent.com/pryazilim/lib/master/data/flag/north-32x32-33045.png"},{"id":116,"name":"Güney Kore","alpha_2_code":"KR","alpha_3_code":"KOR","address_format":"","postcode_required":0,"name_en":"South Korea","phone_code":"82","flag":"https://raw.githubusercontent.com/pryazilim/lib/master/data/flag/south-32x32-33086.png"},{"id":117,"name":"Kuveyt","alpha_2_code":"KW","alpha_3_code":"KWT","address_format":"","postcode_required":0,"name_en":"Kuwait","phone_code":"965","flag":"https://raw.githubusercontent.com/pryazilim/lib/master/data/flag/kuwait-32x32-33013.png"},{"id":118,"name":"Kırgızistan","alpha_2_code":"KG","alpha_3_code":"KGZ","address_format":"","postcode_required":0,"name_en":"Kyrgyzstan","phone_code":"996","flag":"https://raw.githubusercontent.com/pryazilim/lib/master/data/flag/kyrgyzstan-32x32-33014.png"},{"id":119,"name":"Laos","alpha_2_code":"LA","alpha_3_code":"LAO","address_format":"","postcode_required":0,"name_en":"Laos","phone_code":"856","flag":"https://raw.githubusercontent.com/pryazilim/lib/master/data/flag/laos-32x32-33018.png"},{"id":120,"name":"Letonya","alpha_2_code":"LV","alpha_3_code":"LVA","address_format":"","postcode_required":0,"name_en":"Latvia","phone_code":"371","flag":"https://raw.githubusercontent.com/pryazilim/lib/master/data/flag/latvia-32x32-33031.png"},{"id":121,"name":"Lübnan","alpha_2_code":"LB","alpha_3_code":"LBN","address_format":"","postcode_required":0,"name_en":"Lebanon","phone_code":"961","flag":"https://raw.githubusercontent.com/pryazilim/lib/master/data/flag/lebanon-32x32-33015.png"},{"id":122,"name":"Lesotho","alpha_2_code":"LS","alpha_3_code":"LSO","address_format":"","postcode_required":0,"name_en":"Lesotho","phone_code":"266","flag":"https://raw.githubusercontent.com/pryazilim/lib/master/data/flag/lesotho-32x32-33029.png"},{"id":123,"name":"Liberya","alpha_2_code":"LR","alpha_3_code":"LBR","address_format":"","postcode_required":0,"name_en":"Liberia","phone_code":"231","flag":"https://raw.githubusercontent.com/pryazilim/lib/master/data/flag/liberia-32x32-33032.png"},{"id":124,"name":"Libya","alpha_2_code":"LY","alpha_3_code":"LBY","address_format":"","postcode_required":0,"name_en":"Libya","phone_code":"218","flag":"https://raw.githubusercontent.com/pryazilim/lib/master/data/flag/libya-32x32-33026.png"},{"id":125,"name":"Lihtenştayn","alpha_2_code":"LI","alpha_3_code":"LIE","address_format":"","postcode_required":0,"name_en":"Liechtenstein","phone_code":"423","flag":"https://raw.githubusercontent.com/pryazilim/lib/master/data/flag/liechtenstein-32x32-33016.png"},{"id":126,"name":"Litvanya","alpha_2_code":"LT","alpha_3_code":"LTU","address_format":"","postcode_required":1,"name_en":"Lithuania","phone_code":"370","flag":"https://raw.githubusercontent.com/pryazilim/lib/master/data/flag/lithuania-32x32-33043.png"},{"id":127,"name":"Lüksemburg","alpha_2_code":"LU","alpha_3_code":"LUX","address_format":"","postcode_required":0,"name_en":"Luxembourg","phone_code":"352","flag":"https://raw.githubusercontent.com/pryazilim/lib/master/data/flag/luxembourg-32x32-33041.png"},{"id":128,"name":"Macau S.A.R.","alpha_2_code":"MO","alpha_3_code":"MAC","address_format":"","postcode_required":0,"name_en":"Macau","phone_code":"853","flag":""},{"id":129,"name":"Makedonya","alpha_2_code":"MK","alpha_3_code":"MKD","address_format":"","postcode_required":0,"name_en":"Macedonia","phone_code":"389","flag":""},{"id":130,"name":"Madagaskar","alpha_2_code":"MG","alpha_3_code":"MDG","address_format":"","postcode_required":0,"name_en":"Madagascar","phone_code":"261","flag":"https://raw.githubusercontent.com/pryazilim/lib/master/data/flag/madagascar-32x32-33042.png"},{"id":131,"name":"Malawi","alpha_2_code":"MW","alpha_3_code":"MWI","address_format":"","postcode_required":0,"name_en":"Malawi","phone_code":"265","flag":"https://raw.githubusercontent.com/pryazilim/lib/master/data/flag/malawi-32x32-33116.png"},{"id":132,"name":"Malezya","alpha_2_code":"MY","alpha_3_code":"MYS","address_format":"","postcode_required":0,"name_en":"Malaysia","phone_code":"60","flag":"https://raw.githubusercontent.com/pryazilim/lib/master/data/flag/malaysia-32x32-33134.png"},{"id":133,"name":"Maldivler","alpha_2_code":"MV","alpha_3_code":"MDV","address_format":"","postcode_required":0,"name_en":"Maldives","phone_code":"960","flag":"https://raw.githubusercontent.com/pryazilim/lib/master/data/flag/maldives-32x32-33122.png"},{"id":134,"name":"Mali","alpha_2_code":"ML","alpha_3_code":"MLI","address_format":"","postcode_required":0,"name_en":"Mali","phone_code":"223","flag":"https://raw.githubusercontent.com/pryazilim/lib/master/data/flag/mali-32x32-33025.png"},{"id":135,"name":"Malta","alpha_2_code":"MT","alpha_3_code":"MLT","address_format":"","postcode_required":0,"name_en":"Malta","phone_code":"356","flag":"https://raw.githubusercontent.com/pryazilim/lib/master/data/flag/malta-32x32-33120.png"},{"id":136,"name":"Man (Isle of)","alpha_2_code":"IM","alpha_3_code":"IMN","address_format":"","postcode_required":0,"name_en":"Isle Of Man","phone_code":"44","flag":"https://raw.githubusercontent.com/pryazilim/lib/master/data/flag/malta-32x32-33120.png"},{"id":137,"name":"Marşal Adaları","alpha_2_code":"MH","alpha_3_code":"MHL","address_format":"","postcode_required":0,"name_en":"Marshall Islands","phone_code":"692","flag":"https://raw.githubusercontent.com/pryazilim/lib/master/data/flag/marshall-32x32-33054.png"},{"id":138,"name":"Martinik","alpha_2_code":"MQ","alpha_3_code":"MTQ","address_format":"","postcode_required":0,"name_en":"Martinique","phone_code":"596","flag":"https://raw.githubusercontent.com/pryazilim/lib/master/data/flag/marshall-32x32-33054.png"},{"id":139,"name":"Moritanya","alpha_2_code":"MR","alpha_3_code":"MRT","address_format":"","postcode_required":0,"name_en":"Mauritania","phone_code":"222","flag":"https://raw.githubusercontent.com/pryazilim/lib/master/data/flag/mauritania-32x32-33125.png"},{"id":140,"name":"Mauritius","alpha_2_code":"MU","alpha_3_code":"MUS","address_format":"","postcode_required":0,"name_en":"Mauritius","phone_code":"230","flag":"https://raw.githubusercontent.com/pryazilim/lib/master/data/flag/mauritius-32x32-33121.png"},{"id":141,"name":"Mayotte","alpha_2_code":"YT","alpha_3_code":"MYT","address_format":"","postcode_required":0,"name_en":"Mayotte","phone_code":"262","flag":"https://raw.githubusercontent.com/pryazilim/lib/master/data/flag/mayotte-32x32-33123.png"},{"id":142,"name":"Meksika","alpha_2_code":"MX","alpha_3_code":"MEX","address_format":"","postcode_required":0,"name_en":"Mexico","phone_code":"52","flag":"https://raw.githubusercontent.com/pryazilim/lib/master/data/flag/mexico-32x32-33133.png"},{"id":143,"name":"Mikronezya","alpha_2_code":"FM","alpha_3_code":"FSM","address_format":"","postcode_required":0,"name_en":"Micronesia","phone_code":"691","flag":""},{"id":144,"name":"Moldova","alpha_2_code":"MD","alpha_3_code":"MDA","address_format":"","postcode_required":0,"name_en":"Moldova","phone_code":"373","flag":"https://raw.githubusercontent.com/pryazilim/lib/master/data/flag/moldova-32x32-33055.png"},{"id":145,"name":"Monako","alpha_2_code":"MC","alpha_3_code":"MCO","address_format":"","postcode_required":0,"name_en":"Monaco","phone_code":"377","flag":"https://raw.githubusercontent.com/pryazilim/lib/master/data/flag/monaco-32x32-33053.png"},{"id":146,"name":"Moğolistan","alpha_2_code":"MN","alpha_3_code":"MNG","address_format":"","postcode_required":0,"name_en":"Mongolia","phone_code":"976","flag":""},{"id":147,"name":"Montserrat","alpha_2_code":"MS","alpha_3_code":"MSR","address_format":"","postcode_required":0,"name_en":"Montserrat","phone_code":"1664","flag":"https://raw.githubusercontent.com/pryazilim/lib/master/data/flag/montserrat-32x32-33126.png"},{"id":148,"name":"Fas","alpha_2_code":"MA","alpha_3_code":"MAR","address_format":"","postcode_required":0,"name_en":"Morocco","phone_code":"212","flag":"https://raw.githubusercontent.com/pryazilim/lib/master/data/flag/morocco-32x32-33027.png"},{"id":149,"name":"Mozambik","alpha_2_code":"MZ","alpha_3_code":"MOZ","address_format":"","postcode_required":0,"name_en":"Mozambique","phone_code":"258","flag":"https://raw.githubusercontent.com/pryazilim/lib/master/data/flag/mozambique-32x32-33033.png"},{"id":150,"name":"Myanmar","alpha_2_code":"MM","alpha_3_code":"MMR","address_format":"","postcode_required":0,"name_en":"Myanmar","phone_code":"95","flag":"https://raw.githubusercontent.com/pryazilim/lib/master/data/flag/myanmar-32x32-33118.png"},{"id":151,"name":"Namibya","alpha_2_code":"NA","alpha_3_code":"NAM","address_format":"","postcode_required":0,"name_en":"Namibia","phone_code":"264","flag":"https://raw.githubusercontent.com/pryazilim/lib/master/data/flag/namibia-32x32-33132.png"},{"id":152,"name":"Nauru","alpha_2_code":"NR","alpha_3_code":"NRU","address_format":"","postcode_required":0,"name_en":"Nauru","phone_code":"674","flag":"https://raw.githubusercontent.com/pryazilim/lib/master/data/flag/nauru-32x32-33030.png"},{"id":153,"name":"Nepal","alpha_2_code":"NP","alpha_3_code":"NPL","address_format":"","postcode_required":0,"name_en":"Nepal","phone_code":"977","flag":"https://raw.githubusercontent.com/pryazilim/lib/master/data/flag/nepal-32x32-33028.png"},{"id":154,"name":"Hollanda Antilleri","alpha_2_code":"AN","alpha_3_code":"ANT","address_format":"","postcode_required":0,"name_en":"Netherlands Antilles","phone_code":"599","flag":""},{"id":155,"name":"Hollanda","alpha_2_code":"NL","alpha_3_code":"NLD","address_format":"","postcode_required":0,"name_en":"Netherlands","phone_code":"31","flag":"https://raw.githubusercontent.com/pryazilim/lib/master/data/flag/netherlands-32x32-33035.png"},{"id":156,"name":"Yeni Kaledonya","alpha_2_code":"NC","alpha_3_code":"NCL","address_format":"","postcode_required":0,"name_en":"New Caledonia","phone_code":"687","flag":"https://raw.githubusercontent.com/pryazilim/lib/master/data/flag/new-32x32-33065.png"},{"id":157,"name":"Yeni Zelanda","alpha_2_code":"NZ","alpha_3_code":"NZL","address_format":"","postcode_required":0,"name_en":"New Zealand","phone_code":"64","flag":"https://raw.githubusercontent.com/pryazilim/lib/master/data/flag/new-32x32-33036.png"},{"id":158,"name":"Nicaragua","alpha_2_code":"NI","alpha_3_code":"NIC","address_format":"","postcode_required":0,"name_en":"Nicaragua","phone_code":"505","flag":"https://raw.githubusercontent.com/pryazilim/lib/master/data/flag/nicaragua-32x32-33037.png"},{"id":159,"name":"Nijer","alpha_2_code":"NE","alpha_3_code":"NER","address_format":"","postcode_required":0,"name_en":"Niger","phone_code":"227","flag":"https://github.com/pryazilim/lib/blob/master/data/flag/niger-32x32-33038.png?raw=true"},{"id":160,"name":"Nijerya","alpha_2_code":"NG","alpha_3_code":"NGA","address_format":"","postcode_required":0,"name_en":"Nigeria","phone_code":"234","flag":"https://raw.githubusercontent.com/pryazilim/lib/master/data/flag/nigeria-32x32-33039.png"},{"id":161,"name":"Niue","alpha_2_code":"NU","alpha_3_code":"NIU","address_format":"","postcode_required":0,"name_en":"Niue","phone_code":"683","flag":"https://raw.githubusercontent.com/pryazilim/lib/master/data/flag/niue-32x32-33040.png"},{"id":162,"name":"Norfolk Adası","alpha_2_code":"NF","alpha_3_code":"NFK","address_format":"","postcode_required":0,"name_en":"Antarctica","phone_code":"672","flag":"https://raw.githubusercontent.com/pryazilim/lib/master/data/flag/antarctica-32x32-33151.png"},{"id":163,"name":"Kuzey Mariana Adaları","alpha_2_code":"MP","alpha_3_code":"MNP","address_format":"","postcode_required":0,"name_en":"Northern Mariana Islands","phone_code":"1670","flag":"https://raw.githubusercontent.com/pryazilim/lib/master/data/flag/northern-32x32-33128.png"},{"id":164,"name":"Norveç","alpha_2_code":"NO","alpha_3_code":"NOR","address_format":"","postcode_required":0,"name_en":"Norway","phone_code":"47","flag":"https://raw.githubusercontent.com/pryazilim/lib/master/data/flag/norway-32x32-33155.png"},{"id":165,"name":"Umman","alpha_2_code":"OM","alpha_3_code":"OMN","address_format":"","postcode_required":0,"name_en":"Oman","phone_code":"968","flag":"https://raw.githubusercontent.com/pryazilim/lib/master/data/flag/oman-32x32-33046.png"},{"id":166,"name":"Pakistan","alpha_2_code":"PK","alpha_3_code":"PAK","address_format":"","postcode_required":0,"name_en":"Pakistan","phone_code":"92","flag":"https://raw.githubusercontent.com/pryazilim/lib/master/data/flag/pakistan-32x32-33047.png"},{"id":167,"name":"Palau","alpha_2_code":"PW","alpha_3_code":"PLW","address_format":"","postcode_required":0,"name_en":"Palau","phone_code":"680","flag":"https://raw.githubusercontent.com/pryazilim/lib/master/data/flag/palau-32x32-33048.png"},{"id":168,"name":"Filistin","alpha_2_code":"PS","alpha_3_code":"PSE","address_format":"","postcode_required":0,"name_en":"Palestine","phone_code":"970","flag":""},{"id":169,"name":"Panama","alpha_2_code":"PA","alpha_3_code":"PAN","address_format":"","postcode_required":0,"name_en":"Panama","phone_code":"507","flag":"https://raw.githubusercontent.com/pryazilim/lib/master/data/flag/panama-32x32-33049.png"},{"id":170,"name":"Papua Yeni Gine","alpha_2_code":"PG","alpha_3_code":"PNG","address_format":"","postcode_required":0,"name_en":"Papua New Guinea","phone_code":"675","flag":"https://raw.githubusercontent.com/pryazilim/lib/master/data/flag/papua-32x32-33050.png"},{"id":171,"name":"Paraguay","alpha_2_code":"PY","alpha_3_code":"PRY","address_format":"","postcode_required":0,"name_en":"Paraguay","phone_code":"595","flag":"https://raw.githubusercontent.com/pryazilim/lib/master/data/flag/paraguay-32x32-33066.png"},{"id":172,"name":"Peru","alpha_2_code":"PE","alpha_3_code":"PER","address_format":"","postcode_required":0,"name_en":"Peru","phone_code":"51","flag":"https://raw.githubusercontent.com/pryazilim/lib/master/data/flag/peru-32x32-33051.png"},{"id":173,"name":"Filipinler","alpha_2_code":"PH","alpha_3_code":"PHL","address_format":"","postcode_required":0,"name_en":"Philippines","phone_code":"63","flag":"https://raw.githubusercontent.com/pryazilim/lib/master/data/flag/philippines-32x32-33052.png"},{"id":174,"name":"Pitcairn Adası","alpha_2_code":"PN","alpha_3_code":"PCN","address_format":"","postcode_required":0,"name_en":"Pitcairn","phone_code":"64","flag":""},{"id":175,"name":"Polonya","alpha_2_code":"PL","alpha_3_code":"POL","address_format":"","postcode_required":0,"name_en":"Poland","phone_code":"48","flag":"https://raw.githubusercontent.com/pryazilim/lib/master/data/flag/poland-32x32-33057.png"},{"id":176,"name":"Portekiz","alpha_2_code":"PT","alpha_3_code":"PRT","address_format":"","postcode_required":1,"name_en":"Portugal","phone_code":"351","flag":"https://raw.githubusercontent.com/pryazilim/lib/master/data/flag/portugal-32x32-33058.png"},{"id":177,"name":"Porto Riko","alpha_2_code":"PR","alpha_3_code":"PRI","address_format":"","postcode_required":0,"name_en":"Porto Rico","phone_code":"1787, 1939","flag":"https://raw.githubusercontent.com/pryazilim/lib/master/data/flag/puerto-32x32-33059.png"},{"id":178,"name":"Katar","alpha_2_code":"QA","alpha_3_code":"QAT","address_format":"","postcode_required":0,"name_en":"Qatar","phone_code":"974","flag":"https://raw.githubusercontent.com/pryazilim/lib/master/data/flag/qatar-32x32-33060.png"},{"id":179,"name":"Reunion","alpha_2_code":"RE","alpha_3_code":"REU","address_format":"","postcode_required":0,"name_en":"Reunion","phone_code":"262","flag":"https://raw.githubusercontent.com/pryazilim/lib/master/data/flag/mayotte-32x32-33123.png"},{"id":180,"name":"Romanya","alpha_2_code":"RO","alpha_3_code":"ROM","address_format":"","postcode_required":1,"name_en":"Romania","phone_code":"40","flag":"https://raw.githubusercontent.com/pryazilim/lib/master/data/flag/romania-32x32-33063.png"},{"id":181,"name":"Rusya","alpha_2_code":"RU","alpha_3_code":"RUS","address_format":"","postcode_required":0,"name_en":"Russia","phone_code":"7","flag":"https://raw.githubusercontent.com/pryazilim/lib/master/data/flag/russia-32x32-33064.png"},{"id":182,"name":"Ruanda","alpha_2_code":"RW","alpha_3_code":"RWA","address_format":"","postcode_required":0,"name_en":"Rwanda","phone_code":"250","flag":"https://raw.githubusercontent.com/pryazilim/lib/master/data/flag/rwanda-32x32-33067.png"},{"id":183,"name":"Saint Helena","alpha_2_code":"SH","alpha_3_code":"SHN","address_format":"","postcode_required":0,"name_en":"Saint Helena","phone_code":"290","flag":"https://raw.githubusercontent.com/pryazilim/lib/master/data/flag/saint-32x32-33069.png"},{"id":184,"name":"Saint Kitts ve Nevis","alpha_2_code":"KN","alpha_3_code":"KNA","address_format":"","postcode_required":0,"name_en":"Saint Kitts and Nevis","phone_code":"1869","flag":"https://raw.githubusercontent.com/pryazilim/lib/master/data/flag/saint-32x32-33070.png"},{"id":185,"name":"Saint Lucia","alpha_2_code":"LC","alpha_3_code":"LCA","address_format":"","postcode_required":0,"name_en":"Saint Lucia","phone_code":"1758","flag":"https://raw.githubusercontent.com/pryazilim/lib/master/data/flag/saint-32x32-33071.png"},{"id":186,"name":"Saint Pierre ve Miquelon","alpha_2_code":"PM","alpha_3_code":"SPM","address_format":"","postcode_required":0,"name_en":"Saint Pierre and Miquelon","phone_code":"508","flag":""},{"id":187,"name":"Saint Vincent ve Grenadinler","alpha_2_code":"VC","alpha_3_code":"VCT","address_format":"","postcode_required":0,"name_en":"Saint Vincent and the Grenadines","phone_code":"1784","flag":"https://raw.githubusercontent.com/pryazilim/lib/master/data/flag/saint-32x32-33131.png"},{"id":188,"name":"Samoa","alpha_2_code":"WS","alpha_3_code":"WSM","address_format":"","postcode_required":0,"name_en":"Samoa","phone_code":"685","flag":"https://raw.githubusercontent.com/pryazilim/lib/master/data/flag/samoa-32x32-33124.png"},{"id":189,"name":"San Marino","alpha_2_code":"SM","alpha_3_code":"SMR","address_format":"","postcode_required":0,"name_en":"San Marino","phone_code":"378","flag":"https://raw.githubusercontent.com/pryazilim/lib/master/data/flag/san-32x32-33074.png"},{"id":190,"name":"Sao Tome and Principe","alpha_2_code":"ST","alpha_3_code":"STP","address_format":"","postcode_required":0,"name_en":"Sao Tome and Principe","phone_code":"239","flag":"https://raw.githubusercontent.com/pryazilim/lib/master/data/flag/sao-32x32-33075.png"},{"id":191,"name":"Suudi Arabistan","alpha_2_code":"SA","alpha_3_code":"SAU","address_format":"","postcode_required":0,"name_en":"Saudi Arabia","phone_code":"966","flag":"https://raw.githubusercontent.com/pryazilim/lib/master/data/flag/saudi-32x32-33076.png"},{"id":192,"name":"Senegal","alpha_2_code":"SN","alpha_3_code":"SEN","address_format":"","postcode_required":0,"name_en":"Senegal","phone_code":"221","flag":"https://raw.githubusercontent.com/pryazilim/lib/master/data/flag/senegal-32x32-33077.png"},{"id":193,"name":"Sırbistan","alpha_2_code":"RS","alpha_3_code":"SRB","address_format":"","postcode_required":0,"name_en":"Serbia","phone_code":"381","flag":"https://raw.githubusercontent.com/pryazilim/lib/master/data/flag/serbia-32x32-33099.png"},{"id":194,"name":"Seychelles","alpha_2_code":"SC","alpha_3_code":"SYC","address_format":"","postcode_required":0,"name_en":"seychelles","phone_code":"248","flag":"https://raw.githubusercontent.com/pryazilim/lib/master/data/flag/seychelles-32x32-33078.png"},{"id":195,"name":"Sierra Leone","alpha_2_code":"SL","alpha_3_code":"SLE","address_format":"","postcode_required":0,"name_en":"Sierra Leone","phone_code":"232","flag":"https://raw.githubusercontent.com/pryazilim/lib/master/data/flag/sierra-32x32-33079.png"},{"id":196,"name":"Singapur","alpha_2_code":"SG","alpha_3_code":"SGP","address_format":"","postcode_required":0,"name_en":"Singapore","phone_code":"65","flag":"https://raw.githubusercontent.com/pryazilim/lib/master/data/flag/singapore-32x32-33080.png"},{"id":197,"name":"Slovakya","alpha_2_code":"SK","alpha_3_code":"SVK","address_format":"{firstname} {lastname} {company} {address_1} {address_2} {city} {postcode} {zone} {country}","postcode_required":0,"name_en":"Slovakia","phone_code":"421","flag":"https://raw.githubusercontent.com/pryazilim/lib/master/data/flag/slovakia-32x32-33082.png"},{"id":198,"name":"Slovenya","alpha_2_code":"SI","alpha_3_code":"SVN","address_format":"","postcode_required":1,"name_en":"Slovenia","phone_code":"386","flag":"https://raw.githubusercontent.com/pryazilim/lib/master/data/flag/slovenia-32x32-33084.png"},{"id":200,"name":"Solomon Adaları","alpha_2_code":"SB","alpha_3_code":"SLB","address_format":"","postcode_required":0,"name_en":"Solomon Islands","phone_code":"677","flag":"https://raw.githubusercontent.com/pryazilim/lib/master/data/flag/solomon-32x32-33083.png"},{"id":201,"name":"Somali","alpha_2_code":"SO","alpha_3_code":"SOM","address_format":"","postcode_required":0,"name_en":"Somalia","phone_code":"252","flag":"https://raw.githubusercontent.com/pryazilim/lib/master/data/flag/somalia-32x32-33085.png"},{"id":202,"name":"Güney Afrika","alpha_2_code":"ZA","alpha_3_code":"ZAF","address_format":"","postcode_required":0,"name_en":"South Africa","phone_code":"27","flag":"https://raw.githubusercontent.com/pryazilim/lib/master/data/flag/south-32x32-33130.png"},{"id":203,"name":"Güney Gürcistan","alpha_2_code":"GS","alpha_3_code":"SGS","address_format":"","postcode_required":0,"name_en":"Georgia","phone_code":"995","flag":"https://raw.githubusercontent.com/pryazilim/lib/master/data/flag/georgia-32x32-32979.png"},{"id":204,"name":"Güney Sudan","alpha_2_code":"SS","alpha_3_code":"SSD","address_format":"","postcode_required":0,"name_en":"South Sudan","phone_code":"211","flag":"https://raw.githubusercontent.com/pryazilim/lib/master/data/flag/south-32x32-33087.png"},{"id":205,"name":"İspanya","alpha_2_code":"ES","alpha_3_code":"ESP","address_format":"","postcode_required":1,"name_en":"Spain","phone_code":"34","flag":"https://raw.githubusercontent.com/pryazilim/lib/master/data/flag/spain-32x32-33105.png"},{"id":206,"name":"Sri Lanka","alpha_2_code":"LK","alpha_3_code":"LKA","address_format":"","postcode_required":0,"name_en":"Sri Lanka","phone_code":"94","flag":"https://raw.githubusercontent.com/pryazilim/lib/master/data/flag/sri-32x32-33091.png"},{"id":207,"name":"Sudan","alpha_2_code":"SD","alpha_3_code":"SDN","address_format":"","postcode_required":0,"name_en":"Sudan","phone_code":"249","flag":"https://raw.githubusercontent.com/pryazilim/lib/master/data/flag/sudan-32x32-33090.png"},{"id":208,"name":"Surinam","alpha_2_code":"SR","alpha_3_code":"SUR","address_format":"","postcode_required":0,"name_en":"Suriname","phone_code":"597","flag":"https://raw.githubusercontent.com/pryazilim/lib/master/data/flag/suriname-32x32-33092.png"},{"id":209,"name":"Svalbard ve Jan Mayen Adaları","alpha_2_code":"SJ","alpha_3_code":"SJM","address_format":"","postcode_required":0,"name_en":"Svalbard and Jan Mayen","phone_code":"47","flag":"https://raw.githubusercontent.com/pryazilim/lib/master/data/flag/svalbard-32x32-33093.png"},{"id":210,"name":"Svaziland","alpha_2_code":"SZ","alpha_3_code":"SWZ","address_format":"","postcode_required":0,"name_en":"Swaziland","phone_code":"268","flag":"https://raw.githubusercontent.com/pryazilim/lib/master/data/flag/swaziland-32x32-33094.png"},{"id":211,"name":"İsveç","alpha_2_code":"SE","alpha_3_code":"SWE","address_format":"{company} {firstname} {lastname} {address_1} {address_2} {postcode} {city} {country}","postcode_required":1,"name_en":"Sweden","phone_code":"46","flag":"https://raw.githubusercontent.com/pryazilim/lib/master/data/flag/sweden-32x32-33096.png"},{"id":212,"name":"İsviçre","alpha_2_code":"CH","alpha_3_code":"CHE","address_format":"","postcode_required":0,"name_en":"Switzerland","phone_code":"41","flag":"https://raw.githubusercontent.com/pryazilim/lib/master/data/flag/switzerland-32x32-33095.png"},{"id":213,"name":"Suriye","alpha_2_code":"SY","alpha_3_code":"SYR","address_format":"","postcode_required":0,"name_en":"Syria","phone_code":"963","flag":"https://raw.githubusercontent.com/pryazilim/lib/master/data/flag/syrian-32x32-33097.png"},{"id":214,"name":"Tayvan","alpha_2_code":"TW","alpha_3_code":"TWN","address_format":"","postcode_required":0,"name_en":"Taiwan","phone_code":"886","flag":"https://raw.githubusercontent.com/pryazilim/lib/master/data/flag/taiwan-32x32-33098.png"},{"id":215,"name":"Tacikistan","alpha_2_code":"TJ","alpha_3_code":"TJK","address_format":"","postcode_required":0,"name_en":"Tajikistan","phone_code":"992","flag":"https://raw.githubusercontent.com/pryazilim/lib/master/data/flag/tajikistan-32x32-33100.png"},{"id":216,"name":"Tanzanya","alpha_2_code":"TZ","alpha_3_code":"TZA","address_format":"","postcode_required":0,"name_en":"Tanzania","phone_code":"255","flag":"https://raw.githubusercontent.com/pryazilim/lib/master/data/flag/tanzania-32x32-33101.png"},{"id":217,"name":"Tayland","alpha_2_code":"TH","alpha_3_code":"THA","address_format":"","postcode_required":0,"name_en":"Thailand","phone_code":"66","flag":"https://raw.githubusercontent.com/pryazilim/lib/master/data/flag/thailand-32x32-33102.png"},{"id":218,"name":"Togo","alpha_2_code":"TG","alpha_3_code":"TGO","address_format":"","postcode_required":0,"name_en":"Togo","phone_code":"228","flag":"https://raw.githubusercontent.com/pryazilim/lib/master/data/flag/togo-32x32-33106.png"},{"id":219,"name":"Tokelau","alpha_2_code":"TK","alpha_3_code":"TKL","address_format":"","postcode_required":0,"name_en":"Tokelau","phone_code":"690","flag":"https://raw.githubusercontent.com/pryazilim/lib/master/data/flag/tokelau-32x32-33104.png"},{"id":220,"name":"Tonga","alpha_2_code":"TO","alpha_3_code":"TON","address_format":"","postcode_required":0,"name_en":"Tonga","phone_code":"676","flag":"https://raw.githubusercontent.com/pryazilim/lib/master/data/flag/tonga-32x32-33107.png"},{"id":221,"name":"Trinidad And Tobago","alpha_2_code":"TT","alpha_3_code":"TTO","address_format":"","postcode_required":0,"name_en":"Trinidad and Tobago","phone_code":"1868","flag":"https://raw.githubusercontent.com/pryazilim/lib/master/data/flag/trinidad-32x32-33108.png"},{"id":222,"name":"Tunus","alpha_2_code":"TN","alpha_3_code":"TUN","address_format":"","postcode_required":0,"name_en":"Tunisia","phone_code":"216","flag":"https://raw.githubusercontent.com/pryazilim/lib/master/data/flag/tunisia-32x32-33110.png"},{"id":223,"name":"Türkiye","alpha_2_code":"TR","alpha_3_code":"TUR","address_format":"{firstname} {lastname} {company} {address_1} {address_2} {postcode}, {city} - {zone} / {country}","postcode_required":1,"name_en":"Turkey","phone_code":"90","flag":"https://raw.githubusercontent.com/pryazilim/lib/master/data/flag/turkey-32x32-33109.png"},{"id":224,"name":"Türkmenistan","alpha_2_code":"TM","alpha_3_code":"TKM","address_format":"","postcode_required":0,"name_en":"Turkmenistan","phone_code":"993","flag":"https://raw.githubusercontent.com/pryazilim/lib/master/data/flag/turkmenistan-32x32-33111.png"},{"id":225,"name":"Turks ve Caicos Adaları","alpha_2_code":"TC","alpha_3_code":"TCA","address_format":"","postcode_required":0,"name_en":"Turks and Caicos Islands","phone_code":"1649","flag":"https://raw.githubusercontent.com/pryazilim/lib/master/data/flag/turks-32x32-33112.png"},{"id":226,"name":"Tuvalu","alpha_2_code":"TV","alpha_3_code":"TUV","address_format":"","postcode_required":0,"name_en":"Tuvalu","phone_code":"688","flag":"https://raw.githubusercontent.com/pryazilim/lib/master/data/flag/tuvalu-32x32-33113.png"},{"id":227,"name":"Uganda","alpha_2_code":"UG","alpha_3_code":"UGA","address_format":"","postcode_required":0,"name_en":"Uganda","phone_code":"256","flag":"https://raw.githubusercontent.com/pryazilim/lib/master/data/flag/uganda-32x32-33129.png"},{"id":228,"name":"Ukrayna","alpha_2_code":"UA","alpha_3_code":"UKR","address_format":"","postcode_required":0,"name_en":"Ukraine","phone_code":"380","flag":"https://raw.githubusercontent.com/pryazilim/lib/master/data/flag/ukraine-32x32-33145.png"},{"id":229,"name":"Birleşik Arap Emirlikleri","alpha_2_code":"AE","alpha_3_code":"ARE","address_format":"","postcode_required":0,"name_en":"United Arab Emirates","phone_code":"971","flag":"https://raw.githubusercontent.com/pryazilim/lib/master/data/flag/united-32x32-33114.png"},{"id":230,"name":"Birleşik Krallık","alpha_2_code":"GB","alpha_3_code":"GBR","address_format":"","postcode_required":1,"name_en":"United Kingdom","phone_code":"44","flag":"https://raw.githubusercontent.com/pryazilim/lib/master/data/flag/united-32x32-33115.png"},{"id":231,"name":"Amerika Birleşik Devletleri","alpha_2_code":"US","alpha_3_code":"USA","address_format":"{firstname} {lastname} {company} {address_1} {address_2} {city}, {zone} {postcode} {country}","postcode_required":0,"name_en":"United States","phone_code":"1","flag":"https://raw.githubusercontent.com/pryazilim/lib/master/data/flag/united-32x32-33137.png"},{"id":232,"name":"Amerika Birleşik Devletleri Küçük Dış Adaları","alpha_2_code":"UM","alpha_3_code":"UMI","address_format":"","postcode_required":0,"name_en":"United States","phone_code":"1","flag":"https://raw.githubusercontent.com/pryazilim/lib/master/data/flag/united-32x32-33137.png"},{"id":233,"name":"Uruguay","alpha_2_code":"UY","alpha_3_code":"URY","address_format":"","postcode_required":0,"name_en":"Uruguay","phone_code":"598","flag":"https://raw.githubusercontent.com/pryazilim/lib/master/data/flag/uruguay-32x32-33140.png"},{"id":234,"name":"Özbekistan","alpha_2_code":"UZ","alpha_3_code":"UZB","address_format":"","postcode_required":0,"name_en":"Uzbekistan","phone_code":"998","flag":"https://raw.githubusercontent.com/pryazilim/lib/master/data/flag/uzbekistan-32x32-33141.png"},{"id":235,"name":"Vanuatu","alpha_2_code":"VU","alpha_3_code":"VUT","address_format":"","postcode_required":0,"name_en":"Vanuatu","phone_code":"678","flag":"https://raw.githubusercontent.com/pryazilim/lib/master/data/flag/vanuatu-32x32-33142.png"},{"id":236,"name":"Vatikan Şehri","alpha_2_code":"VA","alpha_3_code":"VAT","address_format":"","postcode_required":0,"name_en":"Vatican","phone_code":"379","flag":""},{"id":237,"name":"Venezuela","alpha_2_code":"VE","alpha_3_code":"VEN","address_format":"","postcode_required":0,"name_en":"Venezuela","phone_code":"58","flag":"https://raw.githubusercontent.com/pryazilim/lib/master/data/flag/venezuela-32x32-33138.png"},{"id":238,"name":"Vietnam","alpha_2_code":"VN","alpha_3_code":"VNM","address_format":"","postcode_required":0,"name_en":"Vietnam","phone_code":"84","flag":"https://raw.githubusercontent.com/pryazilim/lib/master/data/flag/vietnam-32x32-33148.png"},{"id":239,"name":"Virgin Adaları (İngiliz)","alpha_2_code":"VG","alpha_3_code":"VGB","address_format":"","postcode_required":0,"name_en":"British Virgin Islands","phone_code":"1284","flag":""},{"id":240,"name":"Virgin Adaları (ABD)","alpha_2_code":"VI","alpha_3_code":"VIR","address_format":"","postcode_required":0,"name_en":"U.S. Virgin Islands","phone_code":"1340","flag":""},{"id":241,"name":"Wallis ve Futuna Adaları","alpha_2_code":"WF","alpha_3_code":"WLF","address_format":"","postcode_required":0,"name_en":"Wallis and Futuna","phone_code":"681","flag":"https://raw.githubusercontent.com/pryazilim/lib/master/data/flag/wallis-32x32-33144.png"},{"id":242,"name":"Batı Sahra","alpha_2_code":"EH","alpha_3_code":"ESH","address_format":"","postcode_required":0,"name_en":"Western Sahara","phone_code":"212","flag":"https://raw.githubusercontent.com/pryazilim/lib/master/data/flag/western-32x32-33139.png"},{"id":243,"name":"Yemen","alpha_2_code":"YE","alpha_3_code":"YEM","address_format":"","postcode_required":0,"name_en":"Yemen","phone_code":"967","flag":"https://raw.githubusercontent.com/pryazilim/lib/master/data/flag/yemen-32x32-33143.png"},{"id":244,"name":"Yugoslavya","alpha_2_code":"YU","alpha_3_code":"YUG","address_format":"","postcode_required":0,"name_en":"","phone_code":"","flag":""},{"id":245,"name":"Zambiya","alpha_2_code":"ZM","alpha_3_code":"ZMB","address_format":"","postcode_required":0,"name_en":"Zambia","phone_code":"260","flag":"https://raw.githubusercontent.com/pryazilim/lib/master/data/flag/zambia-32x32-33146.png"},{"id":246,"name":"Zimbabve","alpha_2_code":"ZW","alpha_3_code":"ZWE","address_format":"","postcode_required":0,"name_en":"Zimbabwe","phone_code":"263","flag":"https://raw.githubusercontent.com/pryazilim/lib/master/data/flag/zimbabwe-32x32-33150.png"},{"id":247,"name":"Karadağ","alpha_2_code":"ME","alpha_3_code":"MNE","address_format":"","postcode_required":0,"name_en":"Montenegro","phone_code":"382","flag":""},{"id":248,"name":"Kanarya Adaları","alpha_2_code":"IC","alpha_3_code":"ICA","address_format":"","postcode_required":0,"name_en":"Canary Islands","phone_code":"","flag":""},{"id":249,"name":"Kosova","alpha_2_code":"XK","alpha_3_code":"UNK","address_format":"","postcode_required":0,"name_en":"Kosova","phone_code":"383","flag":""}]
